LEMUR-2-BALTO           
1 63395U 25052BH  26068.69493058  .00007621  00000+0  63456-3 0  9998
2 63395  97.6978 323.5166 0002279 359.2852   0.8367 14.98934076 53850
STARLINK-34355          
1 64306U 25123R   26068.75469850  .00016574  00000+0  13927-2 0  9994
2 64306  70.0033 194.4730 0002859 265.6748  94.4085 14.98355140 41627
