[{"OBJECT_NAME":"LEMUR-2-BALTO","OBJECT_ID":"2025-052BH","EPOCH":"2026-03-09T16:40:42.002112","MEAN_MOTION":14.98934076,"ECCENTRICITY":0.00022794,"INCLINATION":97.6978,"RA_OF_ASC_NODE":323.5166,"ARG_OF_PERICENTER":359.2852,"MEAN_ANOMALY":0.8367,"EPHEMERIS_TYPE":0,"CLASSIFICATION_TYPE":"U","NORAD_CAT_ID":63395,"ELEMENT_SET_NO":999,"REV_AT_EPOCH":5385,"BSTAR":0.00063455958,"MEAN_MOTION_DOT":7.621e-5,"MEAN_MOTION_DDOT":0},{"OBJECT_NAME":"STARLINK-34355","OBJECT_ID":"2025-123R","EPOCH":"2026-03-09T18:06:45.951264","MEAN_MOTION":14.9835514,"ECCENTRICITY":0.00028594,"INCLINATION":70.0033,"RA_OF_ASC_NODE":194.473,"ARG_OF_PERICENTER":265.6748,"MEAN_ANOMALY":94.4085,"EPHEMERIS_TYPE":0,"CLASSIFICATION_TYPE":"U","NORAD_CAT_ID":64306,"ELEMENT_SET_NO":999,"REV_AT_EPOCH":4162,"BSTAR":0.001392673,"MEAN_MOTION_DOT":0.00016574,"MEAN_MOTION_DDOT":0}]
